{"type":"FeatureCollection","features":[{"type":"Feature","properties":{},"geometry":{"type":"Polygon","coordinates":[[[1.741358,52.543864],[1.745826,52.388703],[4.554916,52.395654],[4.554244,52.545374],[1.741358,52.543864]]]}},{"type":"Feature","properties":{},"geometry":{"type":"Polygon","coordinates":[[[2.09329,52.543864],[2.096641,52.388703],[4.203458,52.395654],[4.202954,52.545374],[2.09329,52.543864]]]}},{"type":"Feature","properties":{},"geometry":{"type":"Polygon","coordinates":[[[2.445222,52.543864],[2.447456,52.388703],[3.852001,52.395654],[3.851665,52.545374],[2.445222,52.543864]]]}}]}